[{"OBJECT_NAME":"ONEWEB-0567","OBJECT_ID":"2023-004H","EPOCH":"2026-06-10T05:34:16.542624","MEAN_MOTION":13.18685193,"ECCENTRICITY":0.0001769,"INCLINATION":87.9158,"RA_OF_ASC_NODE":336.8554,"ARG_OF_PERICENTER":103.4742,"MEAN_ANOMALY":256.6588,"EPHEMERIS_TYPE":0,"CLASSIFICATION_TYPE":"U","NORAD_CAT_ID":55147,"ELEMENT_SET_NO":999,"REV_AT_EPOCH":16878,"BSTAR":3.2795e-05,"MEAN_MOTION_DOT":2.6e-07,"MEAN_MOTION_DDOT":0.0},{"OBJECT_NAME":"ONEWEB-0569","OBJECT_ID":"2023-004J","EPOCH":"2026-06-09T23:59:41.075808","MEAN_MOTION":13.13469073,"ECCENTRICITY":0.0001276,"INCLINATION":87.8958,"RA_OF_ASC_NODE":321.6504,"ARG_OF_PERICENTER":123.2189,"MEAN_ANOMALY":236.9063,"EPHEMERIS_TYPE":0,"CLASSIFICATION_TYPE":"U","NORAD_CAT_ID":55148,"ELEMENT_SET_NO":999,"REV_AT_EPOCH":16923,"BSTAR":-0.00053089,"MEAN_MOTION_DOT":-1.81e-06,"MEAN_MOTION_DDOT":0.0},{"OBJECT_NAME":"ONEWEB-0570","OBJECT_ID":"2023-004K","EPOCH":"2026-06-10T05:22:06.982752","MEAN_MOTION":13.18684565,"ECCENTRICITY":0.0002226,"INCLINATION":87.9155,"RA_OF_ASC_NODE":336.8549,"ARG_OF_PERICENTER":96.6935,"MEAN_ANOMALY":263.4451,"EPHEMERIS_TYPE":0,"CLASSIFICATION_TYPE":"U","NORAD_CAT_ID":55149,"ELEMENT_SET_NO":999,"REV_AT_EPOCH":16877,"BSTAR":7.621099999999999e-05,"MEAN_MOTION_DOT":4.3e-07,"MEAN_MOTION_DDOT":0.0},{"OBJECT_NAME":"ONEWEB-0571","OBJECT_ID":"2023-004L","EPOCH":"2026-06-10T05:12:25.770816","MEAN_MOTION":13.1868312,"ECCENTRICITY":0.000195,"INCLINATION":87.9154,"RA_OF_ASC_NODE":336.8556,"ARG_OF_PERICENTER":130.327,"MEAN_ANOMALY":229.8033,"EPHEMERIS_TYPE":0,"CLASSIFICATION_TYPE":"U","NORAD_CAT_ID":55150,"ELEMENT_SET_NO":999,"REV_AT_EPOCH":16878,"BSTAR":0.0021875,"MEAN_MOTION_DOT":8.75e-06,"MEAN_MOTION_DDOT":0.0},{"OBJECT_NAME":"ONEWEB-0572","OBJECT_ID":"2023-004M","EPOCH":"2026-06-10T01:51:43.465824","MEAN_MOTION":13.17647847,"ECCENTRICITY":0.000187,"INCLINATION":87.9136,"RA_OF_ASC_NODE":7.2802,"ARG_OF_PERICENTER":93.4676,"MEAN_ANOMALY":266.667,"EPHEMERIS_TYPE":0,"CLASSIFICATION_TYPE":"U","NORAD_CAT_ID":55151,"ELEMENT_SET_NO":999,"REV_AT_EPOCH":16654,"BSTAR":0.00013614,"MEAN_MOTION_DOT":6.6e-07,"MEAN_MOTION_DDOT":0.0},{"OBJECT_NAME":"ONEWEB-0573","OBJECT_ID":"2023-004N","EPOCH":"2026-06-10T05:02:42.134496","MEAN_MOTION":13.18685637,"ECCENTRICITY":0.0001977,"INCLINATION":87.9158,"RA_OF_ASC_NODE":336.8585,"ARG_OF_PERICENTER":118.4517,"MEAN_ANOMALY":241.6814,"EPHEMERIS_TYPE":0,"CLASSIFICATION_TYPE":"U","NORAD_CAT_ID":55152,"ELEMENT_SET_NO":999,"REV_AT_EPOCH":16877,"BSTAR":5.6221e-05,"MEAN_MOTION_DOT":3.5e-07,"MEAN_MOTION_DDOT":0.0},{"OBJECT_NAME":"ONEWEB-0588","OBJECT_ID":"2023-004P","EPOCH":"2026-06-10T04:52:59.008800","MEAN_MOTION":13.18684762,"ECCENTRICITY":0.0002279,"INCLINATION":87.9155,"RA_OF_ASC_NODE":336.8599,"ARG_OF_PERICENTER":98.956,"MEAN_ANOMALY":261.183,"EPHEMERIS_TYPE":0,"CLASSIFICATION_TYPE":"U","NORAD_CAT_ID":55153,"ELEMENT_SET_NO":999,"REV_AT_EPOCH":16877,"BSTAR":4.5207e-05,"MEAN_MOTION_DOT":3.1e-07,"MEAN_MOTION_DDOT":0.0},{"OBJECT_NAME":"ONEWEB-0598","OBJECT_ID":"2023-004Q","EPOCH":"2026-06-10T03:22:59.037312","MEAN_MOTION":13.11418072,"ECCENTRICITY":0.0001438,"INCLINATION":87.889,"RA_OF_ASC_NODE":22.4716,"ARG_OF_PERICENTER":106.8943,"MEAN_ANOMALY":253.2342,"EPHEMERIS_TYPE":0,"CLASSIFICATION_TYPE":"U","NORAD_CAT_ID":55154,"ELEMENT_SET_NO":999,"REV_AT_EPOCH":16497,"BSTAR":0.0015279000000000002,"MEAN_MOTION_DOT":5.54e-06,"MEAN_MOTION_DDOT":0.0},{"OBJECT_NAME":"ONEWEB-0599","OBJECT_ID":"2023-004R","EPOCH":"2026-06-10T06:23:53.133216","MEAN_MOTION":13.17648192,"ECCENTRICITY":0.0001637,"INCLINATION":87.9136,"RA_OF_ASC_NODE":7.2411,"ARG_OF_PERICENTER":85.3657,"MEAN_ANOMALY":274.7662,"EPHEMERIS_TYPE":0,"CLASSIFICATION_TYPE":"U","NORAD_CAT_ID":55155,"ELEMENT_SET_NO":999,"REV_AT_EPOCH":16657,"BSTAR":-0.00014324999999999999,"MEAN_MOTION_DOT":-4.3e-07,"MEAN_MOTION_DDOT":0.0},{"OBJECT_NAME":"ONEWEB-0614","OBJECT_ID":"2023-004S","EPOCH":"2026-06-10T01:25:47.003520","MEAN_MOTION":13.11418736,"ECCENTRICITY":0.0002045,"INCLINATION":87.8891,"RA_OF_ASC_NODE":22.4965,"ARG_OF_PERICENTER":82.4013,"MEAN_ANOMALY":277.7347,"EPHEMERIS_TYPE":0,"CLASSIFICATION_TYPE":"U","NORAD_CAT_ID":55156,"ELEMENT_SET_NO":999,"REV_AT_EPOCH":16490,"BSTAR":0.0014676000000000001,"MEAN_MOTION_DOT":5.33e-06,"MEAN_MOTION_DDOT":0.0},{"OBJECT_NAME":"ONEWEB-0616","OBJECT_ID":"2023-004T","EPOCH":"2026-06-10T01:56:35.835648","MEAN_MOTION":13.17648334,"ECCENTRICITY":0.0001168,"INCLINATION":87.9138,"RA_OF_ASC_NODE":7.2815,"ARG_OF_PERICENTER":61.3294,"MEAN_ANOMALY":298.7955,"EPHEMERIS_TYPE":0,"CLASSIFICATION_TYPE":"U","NORAD_CAT_ID":55157,"ELEMENT_SET_NO":999,"REV_AT_EPOCH":16676,"BSTAR":5.4896000000000004e-05,"MEAN_MOTION_DOT":3.4e-07,"MEAN_MOTION_DDOT":0.0},{"OBJECT_NAME":"ONEWEB-0617","OBJECT_ID":"2023-004U","EPOCH":"2026-06-10T02:58:33.869568","MEAN_MOTION":13.11419211,"ECCENTRICITY":0.0002241,"INCLINATION":87.8898,"RA_OF_ASC_NODE":22.4744,"ARG_OF_PERICENTER":86.9472,"MEAN_ANOMALY":273.1913,"EPHEMERIS_TYPE":0,"CLASSIFICATION_TYPE":"U","NORAD_CAT_ID":55158,"ELEMENT_SET_NO":999,"REV_AT_EPOCH":16493,"BSTAR":0.00028754999999999997,"MEAN_MOTION_DOT":1.15e-06,"MEAN_MOTION_DDOT":0.0},{"OBJECT_NAME":"ONEWEB-0618","OBJECT_ID":"2023-004V","EPOCH":"2026-06-10T07:30:44.768160","MEAN_MOTION":15.13093583,"ECCENTRICITY":0.0010459,"INCLINATION":86.9108,"RA_OF_ASC_NODE":180.4253,"ARG_OF_PERICENTER":331.1309,"MEAN_ANOMALY":28.9351,"EPHEMERIS_TYPE":0,"CLASSIFICATION_TYPE":"U","NORAD_CAT_ID":55159,"ELEMENT_SET_NO":999,"REV_AT_EPOCH":18122,"BSTAR":0.00019398,"MEAN_MOTION_DOT":3.468e-05,"MEAN_MOTION_DDOT":0.0},{"OBJECT_NAME":"ONEWEB-0619","OBJECT_ID":"2023-004W","EPOCH":"2026-06-10T02:42:46.128960","MEAN_MOTION":13.17648794,"ECCENTRICITY":0.0002063,"INCLINATION":87.9147,"RA_OF_ASC_NODE":7.2554,"ARG_OF_PERICENTER":75.4473,"MEAN_ANOMALY":284.6887,"EPHEMERIS_TYPE":0,"CLASSIFICATION_TYPE":"U","NORAD_CAT_ID":55160,"ELEMENT_SET_NO":999,"REV_AT_EPOCH":16666,"BSTAR":2.7644e-05,"MEAN_MOTION_DOT":2.4e-07,"MEAN_MOTION_DDOT":0.0},{"OBJECT_NAME":"ONEWEB-0620","OBJECT_ID":"2023-004X","EPOCH":"2026-06-10T02:51:13.072320","MEAN_MOTION":13.11420226,"ECCENTRICITY":0.0001816,"INCLINATION":87.8893,"RA_OF_ASC_NODE":22.4845,"ARG_OF_PERICENTER":92.8806,"MEAN_ANOMALY":267.253,"EPHEMERIS_TYPE":0,"CLASSIFICATION_TYPE":"U","NORAD_CAT_ID":55161,"ELEMENT_SET_NO":999,"REV_AT_EPOCH":16490,"BSTAR":-0.00045602,"MEAN_MOTION_DOT":-1.49e-06,"MEAN_MOTION_DDOT":0.0},{"OBJECT_NAME":"ONEWEB-0621","OBJECT_ID":"2023-004Y","EPOCH":"2026-06-10T03:30:18.234432","MEAN_MOTION":13.11417032,"ECCENTRICITY":0.0002043,"INCLINATION":87.89,"RA_OF_ASC_NODE":22.4671,"ARG_OF_PERICENTER":82.2612,"MEAN_ANOMALY":277.8748,"EPHEMERIS_TYPE":0,"CLASSIFICATION_TYPE":"U","NORAD_CAT_ID":55162,"ELEMENT_SET_NO":999,"REV_AT_EPOCH":16488,"BSTAR":0.0015176,"MEAN_MOTION_DOT":5.51e-06,"MEAN_MOTION_DDOT":0.0},{"OBJECT_NAME":"ONEWEB-0622","OBJECT_ID":"2023-004Z","EPOCH":"2026-06-10T03:37:37.965504","MEAN_MOTION":13.11416037,"ECCENTRICITY":0.0002496,"INCLINATION":87.8901,"RA_OF_ASC_NODE":22.4683,"ARG_OF_PERICENTER":93.2735,"MEAN_ANOMALY":266.8679,"EPHEMERIS_TYPE":0,"CLASSIFICATION_TYPE":"U","NORAD_CAT_ID":55163,"ELEMENT_SET_NO":999,"REV_AT_EPOCH":16487,"BSTAR":0.0011095,"MEAN_MOTION_DOT":4.06e-06,"MEAN_MOTION_DDOT":0.0},{"OBJECT_NAME":"ONEWEB-0623","OBJECT_ID":"2023-004AA","EPOCH":"2026-06-10T00:46:07.339296","MEAN_MOTION":13.17649361,"ECCENTRICITY":0.0002617,"INCLINATION":87.9134,"RA_OF_ASC_NODE":7.3026,"ARG_OF_PERICENTER":81.596,"MEAN_ANOMALY":278.5468,"EPHEMERIS_TYPE":0,"CLASSIFICATION_TYPE":"U","NORAD_CAT_ID":55164,"ELEMENT_SET_NO":999,"REV_AT_EPOCH":16664,"BSTAR":0.00044596999999999996,"MEAN_MOTION_DOT":1.86e-06,"MEAN_MOTION_DDOT":0.0},{"OBJECT_NAME":"ONEWEB-0624","OBJECT_ID":"2023-004AB","EPOCH":"2026-06-10T00:44:59.528256","MEAN_MOTION":13.12928615,"ECCENTRICITY":0.0001899,"INCLINATION":87.8944,"RA_OF_ASC_NODE":352.01,"ARG_OF_PERICENTER":87.5155,"MEAN_ANOMALY":272.6191,"EPHEMERIS_TYPE":0,"CLASSIFICATION_TYPE":"U","NORAD_CAT_ID":55165,"ELEMENT_SET_NO":999,"REV_AT_EPOCH":16713,"BSTAR":-0.00047577000000000003,"MEAN_MOTION_DOT":-1.6e-06,"MEAN_MOTION_DDOT":0.0},{"OBJECT_NAME":"ONEWEB-0625","OBJECT_ID":"2023-004AC","EPOCH":"2026-06-10T02:20:53.983392","MEAN_MOTION":13.17648881,"ECCENTRICITY":0.0001737,"INCLINATION":87.9137,"RA_OF_ASC_NODE":7.285,"ARG_OF_PERICENTER":82.3867,"MEAN_ANOMALY":277.7462,"EPHEMERIS_TYPE":0,"CLASSIFICATION_TYPE":"U","NORAD_CAT_ID":55166,"ELEMENT_SET_NO":999,"REV_AT_EPOCH":16664,"BSTAR":5.0975000000000006e-05,"MEAN_MOTION_DOT":3.3e-07,"MEAN_MOTION_DDOT":0.0},{"OBJECT_NAME":"ONEWEB-0626","OBJECT_ID":"2023-004AD","EPOCH":"2026-06-10T02:06:19.542816","MEAN_MOTION":13.1764906,"ECCENTRICITY":0.0001718,"INCLINATION":87.9137,"RA_OF_ASC_NODE":7.2865,"ARG_OF_PERICENTER":99.9938,"MEAN_ANOMALY":260.1387,"EPHEMERIS_TYPE":0,"CLASSIFICATION_TYPE":"U","NORAD_CAT_ID":55167,"ELEMENT_SET_NO":999,"REV_AT_EPOCH":16664,"BSTAR":0.00016811000000000002,"MEAN_MOTION_DOT":7.8e-07,"MEAN_MOTION_DDOT":0.0},{"OBJECT_NAME":"ONEWEB-0627","OBJECT_ID":"2023-004AE","EPOCH":"2026-06-10T01:49:17.531040","MEAN_MOTION":13.17647307,"ECCENTRICITY":0.0002349,"INCLINATION":87.9135,"RA_OF_ASC_NODE":7.2894,"ARG_OF_PERICENTER":83.6096,"MEAN_ANOMALY":276.5303,"EPHEMERIS_TYPE":0,"CLASSIFICATION_TYPE":"U","NORAD_CAT_ID":55168,"ELEMENT_SET_NO":999,"REV_AT_EPOCH":16664,"BSTAR":0.00012717999999999999,"MEAN_MOTION_DOT":6.2e-07,"MEAN_MOTION_DDOT":0.0},{"OBJECT_NAME":"ONEWEB-0628","OBJECT_ID":"2023-004AF","EPOCH":"2026-06-10T05:43:46.560576","MEAN_MOTION":13.12443641,"ECCENTRICITY":0.0002442,"INCLINATION":87.8948,"RA_OF_ASC_NODE":352.0349,"ARG_OF_PERICENTER":81.2601,"MEAN_ANOMALY":278.8804,"EPHEMERIS_TYPE":0,"CLASSIFICATION_TYPE":"U","NORAD_CAT_ID":55169,"ELEMENT_SET_NO":999,"REV_AT_EPOCH":16712,"BSTAR":-0.00078338,"MEAN_MOTION_DOT":-2.69e-06,"MEAN_MOTION_DDOT":0.0}]